OBJECT_NAME,OBJECT_ID,EPOCH,MEAN_MOTION,ECCENTRICITY,INCLINATION,RA_OF_ASC_NODE,ARG_OF_PERICENTER,MEAN_ANOMALY,EPHEMERIS_TYPE,CLASSIFICATION_TYPE,NORAD_CAT_ID,ELEMENT_SET_NO,REV_AT_EPOCH,BSTAR,MEAN_MOTION_DOT,MEAN_MOTION_DDOT
LEMUR-1,2014-033AL,2026-07-11T21:11:51.417600,14.85331099,.0048047,97.7903,342.1444,358.8650,1.2448,0,U,40044,999,64913,.10759E-3,.888E-5,0
LEMUR-2-GREENBERG,2017-042N,2026-07-09T11:53:19.376160,15.32031511,.00071356,97.3831,11.0293,283.6729,76.3718,0,U,42837,999,49180,.3749711E-3,.11532E-3,0
LEMUR-2-ANDIS,2017-042P,2026-07-12T11:15:38.397024,15.35849981,.0007132,97.3674,14.2674,269.8003,90.2423,0,U,42838,999,49233,.36920282E-3,.12815E-3,0
LEMUR-2-MONSON,2017-042Q,2026-07-10T11:15:45.883584,15.28674858,.00051568,97.4089,11.9359,266.7916,93.2733,0,U,42839,999,49172,.34676682E-3,.96E-4,0
LEMUR-2-FURIAUS,2017-042R,2026-07-12T10:41:36.677760,15.31072029,.00062398,97.3775,11.8672,340.6601,19.4403,0,U,42840,999,49207,.35675373E-3,.10642E-3,0
LEMUR-2-PETERG,2017-042S,2026-07-13T04:27:13.833792,15.34981340,.0003177,97.3989,19.2788,228.6498,131.4472,0,U,42841,999,49242,.37379E-3,.12612E-3,0
LEMUR-2-DEMBITZ,2017-042T,2026-07-12T22:08:46.847616,15.31066311,.0005054,97.3822,15.3838,284.9357,75.1324,0,U,42842,999,49228,.42161E-3,.12588E-3,0
LEMUR-2-ZACHARY,2017-042W,2026-07-12T11:22:55.117920,15.52533794,.00024605,97.3575,25.6887,261.6834,98.4140,0,U,42845,999,49312,.52089587E-3,.31926E-3,0
LEMUR-2-AMANDA-SVANTE,2021-034B,2026-07-12T18:42:41.198400,15.35862163,.000453,97.5758,272.7671,149.3541,210.7967,0,U,48269,999,28498,.74134E-3,.25852E-3,0
LEMUR-2-SPECIAL-K,2021-034F,2026-07-12T18:59:05.709120,15.73857408,.000621,97.5640,282.6731,216.3246,143.7597,0,U,48273,999,28570,.1554E-2,.224827E-2,0
LEMUR-2-EMBRIONOVIS,2023-084AQ,2026-07-12T20:06:50.506848,15.38191732,.0008097,97.6313,339.0377,215.5388,144.5318,0,U,56970,999,17162,.26205E-3,.978E-4,0
LEMUR-2-DEVERILL-M-T,2023-100F,2026-07-13T00:33:25.559136,15.41024565,.0004659,99.4456,240.2682,306.5620,53.5190,0,U,57391,999,16522,.48096E-3,.19765E-3,0
LEMUR-2-BASS,2023-174D,2026-07-12T22:44:15.073152,15.43947109,.0007768,97.3851,279.0335,85.0548,275.1587,0,U,58259,999,14933,.28921E-3,.13088E-3,0
LEMUR-2-JK0903EM1407,2023-174CJ,2026-07-13T01:22:12.874080,15.52994867,.0003816,97.3925,285.2802,41.2972,318.8569,0,U,58336,999,14974,.33514E-3,.20824E-3,0
LEMUR-2-MJR092620,2023-174CN,2026-07-13T02:59:16.564992,15.45813273,.0005499,97.3982,284.6474,37.0791,323.0837,0,U,58340,999,14965,.261E-3,.1257E-3,0
LEMUR-2-NIMBUS2000,2024-022A,2026-07-13T01:27:37.174752,15.41059887,.000897,97.4086,44.4028,35.6385,324.5459,0,U,58899,999,13625,.41634E-3,.17155E-3,0
LEMUR-2-VALHALLA,2024-022B,2026-07-13T01:33:22.806720,15.40448362,.0009428,97.4080,44.3791,31.1662,329.0142,0,U,58900,999,13625,.30639E-3,.12343E-3,0
LEMUR-2-CAEL,2024-022E,2026-07-13T01:15:21.769056,15.41811617,.0007347,97.4066,45.3488,16.8649,343.2841,0,U,58903,999,13632,.31819E-3,.1341E-3,0
LEMUR-2-JOHNNYTRUONG,2024-043BA,2026-07-12T21:53:48.991776,15.62437874,.0004168,97.5386,347.2493,100.0253,260.1475,0,U,59146,999,13205,.39976E-3,.35445E-3,0
LEMUR-2-TOMATOKECHUP,2024-149D,2026-07-12T18:28:56.034336,15.36552510,.0003218,97.3802,275.8895,127.0790,233.0748,0,U,60471,999,10609,.21932E-3,.7744E-4,0
LEMUR-2-STELLA,2024-149BT,2026-07-12T18:11:32.160768,15.12343479,.0001212,97.6742,276.3329,111.1523,248.9837,0,U,60533,999,10436,.4346E-3,.7469E-4,0
LEMUR-2-MARHISYAM,2024-149BW,2026-07-13T00:18:19.713888,15.11754239,.0002716,97.6885,277.0636,73.2664,286.8864,0,U,60536,999,10438,.39418E-3,.6657E-4,0
LEMUR-2-AHMED-ASRAR,2024-149DN,2026-07-12T18:09:59.931360,15.13277524,.0000936,97.7013,278.9991,206.0418,154.0766,0,U,60576,999,10443,.43625E-3,.7696E-4,0
LEMUR-2-LLOYD,2024-149DP,2026-07-13T03:50:48.204096,15.09730336,.0004844,97.6750,275.3105,76.5693,283.6075,0,U,60577,999,10431,.41326E-3,.6603E-4,0
LEMUR-2-SQUIRRELCOMM,2024-149DQ,2026-07-12T19:32:00.287808,15.07434731,.0004209,97.6717,274.6477,339.2490,20.8566,0,U,60578,999,10426,.22693E-3,.3375E-4,0
LEMUR-2-SIERRINI,2024-149DR,2026-07-13T04:10:02.381088,15.11486633,.000641,97.6847,276.8886,95.7209,264.4752,0,U,60579,999,10438,.42518E-3,.7136E-4,0
LEMUR-2-WILSON,2025-009CP,2026-07-12T22:14:18.504384,14.95273147,.0002196,97.7022,271.9401,337.3895,22.7229,0,U,62694,999,8120,.78714E-4,.81E-5,0
LEMUR-2-STAR-FOX,2025-009CR,2026-07-12T19:06:54.480960,15.02825375,.0002504,97.6917,275.2217,52.5903,307.5549,0,U,62696,999,8140,.30473E-3,.4021E-4,0
LEMUR-2-ARIANNA,2025-009CU,2026-07-12T19:04:42.170592,15.02826231,.0002828,97.6856,274.9744,57.8921,302.2579,0,U,62699,999,8140,.31771E-3,.4195E-4,0
LEMUR-2-ALISIA,2025-009DB,2026-07-13T04:00:49.263840,15.03157072,.0004039,97.6972,276.1644,134.8239,225.3315,0,U,62706,999,10406,.35425E-3,.4726E-4,0
